{
  "type": "FeatureCollection",
  "features": [
    {
      "type": "Feature",
      "properties": {
        "norad_id": 66503,
        "name": "STARLINK-35917",
        "group": "last-30-days",
        "lat": -29.78694004269329,
        "lon": -21.78311787513113,
        "alt_km": 442.6614460044657,
        "timestamp": "2025-12-13T13:34:33.863570+00:00",
        "meta_object_name": "STARLINK-35917",
        "meta_object_id": "2025-263U",
        "meta_epoch": "2025-12-12T20:00:01.999872",
        "meta_mean_motion": 15.44974609,
        "meta_eccentricity": 0.00015575,
        "meta_inclination": 43.0002,
        "meta_ra_of_asc_node": 124.5567,
        "meta_arg_of_pericenter": 287.3644,
        "meta_mean_anomaly": 185.6338,
        "meta_ephemeris_type": 0,
        "meta_classification_type": "U",
        "meta_norad_cat_id": 66503,
        "meta_element_set_no": 999,
        "meta_rev_at_epoch": 565,
        "meta_bstar": -0.046418719,
        "meta_mean_motion_dot": -0.01997372,
        "meta_mean_motion_ddot": 0,
        "tle_line1": "1 66503U 25263U   25346.83335648 -.01997372  00000+0 -46419-1 0  9992",
        "tle_line2": "2 66503  43.0002 124.5567 0001557 287.3644 185.6338 15.44974609  5652"
      },
      "geometry": {
        "type": "Point",
        "coordinates": [
          -21.78311787513113,
          -29.78694004269329
        ]
      }
    },
    {
      "type": "Feature",
      "properties": {
        "norad_id": 66504,
        "name": "STARLINK-35916",
        "group": "last-30-days",
        "lat": -31.133842469086268,
        "lon": 81.46682577137635,
        "alt_km": 444.6689286435885,
        "timestamp": "2025-12-13T13:34:33.863579+00:00",
        "meta_object_name": "STARLINK-35916",
        "meta_object_id": "2025-263V",
        "meta_epoch": "2025-12-12T17:33:48.907584",
        "meta_mean_motion": 15.40710087,
        "meta_eccentricity": 0.00029138,
        "meta_inclination": 43.0006,
        "meta_ra_of_asc_node": 126.6799,
        "meta_arg_of_pericenter": 281.8112,
        "meta_mean_anomaly": 78.2418,
        "meta_ephemeris_type": 0,
        "meta_classification_type": "U",
        "meta_norad_cat_id": 66504,
        "meta_element_set_no": 999,
        "meta_rev_at_epoch": 554,
        "meta_bstar": 0.0014947011,
        "meta_mean_motion_dot": 0.00062674,
        "meta_mean_motion_ddot": 0,
        "tle_line1": "1 66504U 25263V   25346.73181606  .00062674  00000+0  14947-2 0  9992",
        "tle_line2": "2 66504  43.0006 126.6799 0002913 281.8112  78.2418 15.40710087  5541"
      },
      "geometry": {
        "type": "Point",
        "coordinates": [
          81.46682577137635,
          -31.133842469086268
        ]
      }
    },
    {
      "type": "Feature",
      "properties": {
        "norad_id": 66505,
        "name": "STARLINK-34766",
        "group": "last-30-days",
        "lat": -40.08603122384286,
        "lon": 4.849023262756006,
        "alt_km": 416.73173671959194,
        "timestamp": "2025-12-13T13:34:33.863590+00:00",
        "meta_object_name": "STARLINK-34766",
        "meta_object_id": "2025-263W",
        "meta_epoch": "2025-12-12T17:56:57.882624",
        "meta_mean_motion": 15.50613801,
        "meta_eccentricity": 0.00016181,
        "meta_inclination": 42.9974,
        "meta_ra_of_asc_node": 125.0394,
        "meta_arg_of_pericenter": 278.9286,
        "meta_mean_anomaly": 81.1391,
        "meta_ephemeris_type": 0,
        "meta_classification_type": "U",
        "meta_norad_cat_id": 66505,
        "meta_element_set_no": 999,
        "meta_rev_at_epoch": 556,
        "meta_bstar": 0.0019225717,
        "meta_mean_motion_dot": 0.00114249,
        "meta_mean_motion_ddot": 0,
        "tle_line1": "1 66505U 25263W   25346.74789216  .00114249  00000+0  19226-2 0  9996",
        "tle_line2": "2 66505  42.9974 125.0394 0001618 278.9286  81.1391 15.50613801  5560"
      },
      "geometry": {
        "type": "Point",
        "coordinates": [
          4.849023262756006,
          -40.08603122384286
        ]
      }
    },
    {
      "type": "Feature",
      "properties": {
        "norad_id": 66506,
        "name": "STARLINK-34765",
        "group": "last-30-days",
        "lat": -40.6124160783701,
        "lon": 7.2161521917802816,
        "alt_km": 416.7367653318506,
        "timestamp": "2025-12-13T13:34:33.863600+00:00",
        "meta_object_name": "STARLINK-34765",
        "meta_object_id": "2025-263X",
        "meta_epoch": "2025-12-12T17:56:28.118688",
        "meta_mean_motion": 15.50614072,
        "meta_eccentricity": 0.00017352,
        "meta_inclination": 42.9977,
        "meta_ra_of_asc_node": 125.0386,
        "meta_arg_of_pericenter": 277.9312,
        "meta_mean_anomaly": 82.1351,
        "meta_ephemeris_type": 0,
        "meta_classification_type": "U",
        "meta_norad_cat_id": 66506,
        "meta_element_set_no": 999,
        "meta_rev_at_epoch": 556,
        "meta_bstar": 0.0016350545,
        "meta_mean_motion_dot": 0.00096897,
        "meta_mean_motion_ddot": 0,
        "tle_line1": "1 66506U 25263X   25346.74754767  .00096897  00000+0  16351-2 0  9994",
        "tle_line2": "2 66506  42.9977 125.0386 0001735 277.9312  82.1351 15.50614072  5562"
      },
      "geometry": {
        "type": "Point",
        "coordinates": [
          7.2161521917802816,
          -40.6124160783701
        ]
      }
    },
    {
      "type": "Feature",
      "properties": {
        "norad_id": 66507,
        "name": "STARLINK-34767",
        "group": "last-30-days",
        "lat": -14.21990598631636,
        "lon": -43.84068422417049,
        "alt_km": 449.58399029347675,
        "timestamp": "2025-12-13T13:34:33.863621+00:00",
        "meta_object_name": "STARLINK-34767",
        "meta_object_id": "2025-263Y",
        "meta_epoch": "2025-12-12T20:00:01.999872",
        "meta_mean_motion": 15.42054439,
        "meta_eccentricity": 0.00016965,
        "meta_inclination": 42.9998,
        "meta_ra_of_asc_node": 124.5993,
        "meta_arg_of_pericenter": 269.8489,
        "meta_mean_anomaly": 184.9527,
        "meta_ephemeris_type": 0,
        "meta_classification_type": "U",
        "meta_norad_cat_id": 66507,
        "meta_element_set_no": 999,
        "meta_rev_at_epoch": 565,
        "meta_bstar": -0.048145836,
        "meta_mean_motion_dot": -0.01887561,
        "meta_mean_motion_ddot": 0,
        "tle_line1": "1 66507U 25263Y   25346.83335648 -.01887561  00000+0 -48146-1 0  9993",
        "tle_line2": "2 66507  42.9998 124.5993 0001696 269.8489 184.9527 15.42054439  5657"
      },
      "geometry": {
        "type": "Point",
        "coordinates": [
          -43.84068422417049,
          -14.21990598631636
        ]
      }
    },
    {
      "type": "Feature",
      "properties": {
        "norad_id": 66508,
        "name": "STARLINK-35608",
        "group": "last-30-days",
        "lat": -41.11286836305238,
        "lon": 9.7360866355484,
        "alt_km": 415.0738646826685,
        "timestamp": "2025-12-13T13:34:33.863633+00:00",
        "meta_object_name": "STARLINK-35608",
        "meta_object_id": "2025-263Z",
        "meta_epoch": "2025-12-12T17:54:36.559872",
        "meta_mean_motion": 15.48850381,
        "meta_eccentricity": 0.0012121,
        "meta_inclination": 42.9993,
        "meta_ra_of_asc_node": 125.03,
        "meta_arg_of_pericenter": 271.6862,
        "meta_mean_anomaly": 88.261,
        "meta_ephemeris_type": 0,
        "meta_classification_type": "U",
        "meta_norad_cat_id": 66508,
        "meta_element_set_no": 999,
        "meta_rev_at_epoch": 556,
        "meta_bstar": 0.0027632022,
        "meta_mean_motion_dot": 0.00155618,
        "meta_mean_motion_ddot": 0,
        "tle_line1": "1 66508U 25263Z   25346.74625648  .00155618  00000+0  27632-2 0  9992",
        "tle_line2": "2 66508  42.9993 125.0300 0012121 271.6862  88.2610 15.48850381  5567"
      },
      "geometry": {
        "type": "Point",
        "coordinates": [
          9.7360866355484,
          -41.11286836305238
        ]
      }
    },
    {
      "type": "Feature",
      "properties": {
        "norad_id": 66509,
        "name": "STARLINK-35598",
        "group": "last-30-days",
        "lat": -42.97723162382727,
        "lon": 30.37340329926747,
        "alt_km": 414.2598768991493,
        "timestamp": "2025-12-13T13:34:33.863642+00:00",
        "meta_object_name": "STARLINK-35598",
        "meta_object_id": "2025-263AA",
        "meta_epoch": "2025-12-12T17:51:59.965920",
        "meta_mean_motion": 15.50649033,
        "meta_eccentricity": 0.00053458,
        "meta_inclination": 42.9978,
        "meta_ra_of_asc_node": 125.0127,
        "meta_arg_of_pericenter": 249.8258,
        "meta_mean_anomaly": 110.2028,
        "meta_ephemeris_type": 0,
        "meta_classification_type": "U",
        "meta_norad_cat_id": 66509,
        "meta_element_set_no": 999,
        "meta_rev_at_epoch": 556,
        "meta_bstar": 0.0015660019,
        "meta_mean_motion_dot": 0.00092897,
        "meta_mean_motion_ddot": 0,
        "tle_line1": "1 66509U 25263AA  25346.74444405  .00092897  00000+0  15660-2 0  9990",
        "tle_line2": "2 66509  42.9978 125.0127 0005345 249.8258 110.2028 15.50649033  5566"
      },
      "geometry": {
        "type": "Point",
        "coordinates": [
          30.37340329926747,
          -42.97723162382727
        ]
      }
    }
  ]
}